IRIDIUM 116             
1 43072U 17083C   24299.83364632  .00000357  00000+0  12030-3 0  9999
2 43072  86.4022 212.4574 0002237  81.7360 278.4089 14.34217114358264
IRIDIUM 130             
1 43073U 17083D   24299.52285986  .00000038  00000+0  66133-5 0  9991
2 43073  86.4031 212.8035 0002431  85.0518 275.0956 14.34215538358162
IRIDIUM 151             
1 43074U 17083E   24299.84631352  .00000723  00000+0  25088-3 0  9992
2 43074  86.4023 212.4961 0002045  81.0448 279.0979 14.34226366358235
IRIDIUM 134             
1 43075U 17083F   24298.83787710  .00000860  00000+0  30009-3 0  9992
2 43075  86.4025 212.9166 0002325  81.9544 278.1916 14.34223416358051
IRIDIUM 137             
1 43076U 17083G   24299.82730241  .00000936  00000+0  32716-3 0  9991
2 43076  86.4027 212.5840 0002151  67.7395 292.4028 14.34218839358261
IRIDIUM 141             
1 43077U 17083H   24298.84420284  .00000318  00000+0  10633-3 0  9994
2 43077  86.4023 212.8593 0002117  84.2394 275.9043 14.34219046358120
IRIDIUM 153             
1 43078U 17083J   24299.63360064  .00000629  00000+0  21739-3 0  9996
2 43078  86.4029 181.0610 0001745 101.2139 258.9253 14.34221067359342
IRIDIUM 131             
1 43079U 17083K   24299.52920057  .00001232  00000+0  43282-3 0  9997
2 43079  86.4028 212.7195 0002031  83.2735 276.8692 14.34220434358153
